{
  "type": "FeatureCollection",
  "features": [
    {
      "type": "Feature",
      "properties": {
        "norad_id": 67005,
        "name": "STARLINK-36148",
        "group": "last-30-days",
        "lat": -14.976544193625033,
        "lon": -70.96215551825799,
        "alt_km": 316.1149248133779,
        "timestamp": "2025-12-22T18:58:52.141325+00:00",
        "meta_object_name": "STARLINK-36148",
        "meta_object_id": "2025-293C",
        "meta_epoch": "2025-12-22T06:00:02.000160",
        "meta_mean_motion": 15.88364285,
        "meta_eccentricity": 0.00032988,
        "meta_inclination": 69.9944,
        "meta_ra_of_asc_node": 296.191,
        "meta_arg_of_pericenter": 269.3535,
        "meta_mean_anomaly": 224.9511,
        "meta_ephemeris_type": 0,
        "meta_classification_type": "U",
        "meta_norad_cat_id": 67005,
        "meta_element_set_no": 999,
        "meta_rev_at_epoch": 170,
        "meta_bstar": -0.0068075805,
        "meta_mean_motion_dot": -0.01650352,
        "meta_mean_motion_ddot": 0,
        "tle_line1": "1 67005U 25293C   25356.25002315 -.01650352  00000+0 -68076-2 0  9990",
        "tle_line2": "2 67005  69.9944 296.1910 0003298 269.3535 224.9511 15.88364285  1706"
      },
      "geometry": {
        "type": "Point",
        "coordinates": [
          -70.96215551825799,
          -14.976544193625033
        ]
      }
    },
    {
      "type": "Feature",
      "properties": {
        "norad_id": 67006,
        "name": "STARLINK-36156",
        "group": "last-30-days",
        "lat": -9.764025380101854,
        "lon": -68.97096983525793,
        "alt_km": 315.7940222248417,
        "timestamp": "2025-12-22T18:58:52.141337+00:00",
        "meta_object_name": "STARLINK-36156",
        "meta_object_id": "2025-293D",
        "meta_epoch": "2025-12-22T06:00:02.000160",
        "meta_mean_motion": 15.88253741,
        "meta_eccentricity": 0.00043857,
        "meta_inclination": 69.9942,
        "meta_ra_of_asc_node": 296.1835,
        "meta_arg_of_pericenter": 266.5328,
        "meta_mean_anomaly": 233.4281,
        "meta_ephemeris_type": 0,
        "meta_classification_type": "U",
        "meta_norad_cat_id": 67006,
        "meta_element_set_no": 999,
        "meta_rev_at_epoch": 170,
        "meta_bstar": -0.0064306137,
        "meta_mean_motion_dot": -0.01531,
        "meta_mean_motion_ddot": 0,
        "tle_line1": "1 67006U 25293D   25356.25002315 -.01531000  00000+0 -64306-2 0  9991",
        "tle_line2": "2 67006  69.9942 296.1835 0004385 266.5328 233.4281 15.88253741  1701"
      },
      "geometry": {
        "type": "Point",
        "coordinates": [
          -68.97096983525793,
          -9.764025380101854
        ]
      }
    },
    {
      "type": "Feature",
      "properties": {
        "norad_id": 67007,
        "name": "STARLINK-36123",
        "group": "last-30-days",
        "lat": -12.140227089577985,
        "lon": -69.8685690151658,
        "alt_km": 315.9362786103684,
        "timestamp": "2025-12-22T18:58:52.141349+00:00",
        "meta_object_name": "STARLINK-36123",
        "meta_object_id": "2025-293E",
        "meta_epoch": "2025-12-22T06:00:02.000160",
        "meta_mean_motion": 15.88273839,
        "meta_eccentricity": 0.00041091,
        "meta_inclination": 69.994,
        "meta_ra_of_asc_node": 296.1866,
        "meta_arg_of_pericenter": 266.025,
        "meta_mean_anomaly": 231.3688,
        "meta_ephemeris_type": 0,
        "meta_classification_type": "U",
        "meta_norad_cat_id": 67007,
        "meta_element_set_no": 999,
        "meta_rev_at_epoch": 170,
        "meta_bstar": -0.0064412885,
        "meta_mean_motion_dot": -0.01534158,
        "meta_mean_motion_ddot": 0,
        "tle_line1": "1 67007U 25293E   25356.25002315 -.01534158  00000+0 -64413-2 0  9998",
        "tle_line2": "2 67007  69.9940 296.1866 0004109 266.0250 231.3688 15.88273839  1705"
      },
      "geometry": {
        "type": "Point",
        "coordinates": [
          -69.8685690151658,
          -12.140227089577985
        ]
      }
    },
    {
      "type": "Feature",
      "properties": {
        "norad_id": 67008,
        "name": "STARLINK-36163",
        "group": "last-30-days",
        "lat": -6.7156528308273105,
        "lon": -67.83885285205513,
        "alt_km": 314.89001592499153,
        "timestamp": "2025-12-22T18:58:52.141359+00:00",
        "meta_object_name": "STARLINK-36163",
        "meta_object_id": "2025-293F",
        "meta_epoch": "2025-12-22T06:00:02.000160",
        "meta_mean_motion": 15.88178563,
        "meta_eccentricity": 0.00039199,
        "meta_inclination": 69.9941,
        "meta_ra_of_asc_node": 296.1797,
        "meta_arg_of_pericenter": 281.6718,
        "meta_mean_anomaly": 221.6131,
        "meta_ephemeris_type": 0,
        "meta_classification_type": "U",
        "meta_norad_cat_id": 67008,
        "meta_element_set_no": 999,
        "meta_rev_at_epoch": 170,
        "meta_bstar": -0.0061642127,
        "meta_mean_motion_dot": -0.01470804,
        "meta_mean_motion_ddot": 0,
        "tle_line1": "1 67008U 25293F   25356.25002315 -.01470804  00000+0 -61642-2 0  9997",
        "tle_line2": "2 67008  69.9941 296.1797 0003919 281.6718 221.6131 15.88178563  1703"
      },
      "geometry": {
        "type": "Point",
        "coordinates": [
          -67.83885285205513,
          -6.7156528308273105
        ]
      }
    },
    {
      "type": "Feature",
      "properties": {
        "norad_id": 67009,
        "name": "STARLINK-36118",
        "group": "last-30-days",
        "lat": -4.178292247613098,
        "lon": -66.90856997929801,
        "alt_km": 314.60238680756083,
        "timestamp": "2025-12-22T18:58:52.141370+00:00",
        "meta_object_name": "STARLINK-36118",
        "meta_object_id": "2025-293G",
        "meta_epoch": "2025-12-22T06:00:02.000160",
        "meta_mean_motion": 15.88151824,
        "meta_eccentricity": 0.00036233,
        "meta_inclination": 69.994,
        "meta_ra_of_asc_node": 296.1763,
        "meta_arg_of_pericenter": 286.9257,
        "meta_mean_anomaly": 219.1162,
        "meta_ephemeris_type": 0,
        "meta_classification_type": "U",
        "meta_norad_cat_id": 67009,
        "meta_element_set_no": 999,
        "meta_rev_at_epoch": 164,
        "meta_bstar": -0.0061678572,
        "meta_mean_motion_dot": -0.0146951,
        "meta_mean_motion_ddot": 0,
        "tle_line1": "1 67009U 25293G   25356.25002315 -.01469510  00000+0 -61679-2 0  9990",
        "tle_line2": "2 67009  69.9940 296.1763 0003623 286.9257 219.1162 15.88151824  1644"
      },
      "geometry": {
        "type": "Point",
        "coordinates": [
          -66.90856997929801,
          -4.178292247613098
        ]
      }
    },
    {
      "type": "Feature",
      "properties": {
        "norad_id": 67010,
        "name": "STARLINK-36189",
        "group": "last-30-days",
        "lat": 0.41301854475054806,
        "lon": -65.2387084771751,
        "alt_km": 315.03354224102986,
        "timestamp": "2025-12-22T18:58:52.141380+00:00",
        "meta_object_name": "STARLINK-36189",
        "meta_object_id": "2025-293H",
        "meta_epoch": "2025-12-22T06:00:02.000160",
        "meta_mean_motion": 15.88145789,
        "meta_eccentricity": 0.00034095,
        "meta_inclination": 69.9939,
        "meta_ra_of_asc_node": 296.1704,
        "meta_arg_of_pericenter": 267.5596,
        "meta_mean_anomaly": 243.3704,
        "meta_ephemeris_type": 0,
        "meta_classification_type": "U",
        "meta_norad_cat_id": 67010,
        "meta_element_set_no": 999,
        "meta_rev_at_epoch": 170,
        "meta_bstar": -0.0061343526,
        "meta_mean_motion_dot": -0.01461976,
        "meta_mean_motion_ddot": 0,
        "tle_line1": "1 67010U 25293H   25356.25002315 -.01461976  00000+0 -61344-2 0  9999",
        "tle_line2": "2 67010  69.9939 296.1704 0003409 267.5596 243.3704 15.88145789  1703"
      },
      "geometry": {
        "type": "Point",
        "coordinates": [
          -65.2387084771751,
          0.41301854475054806
        ]
      }
    },
    {
      "type": "Feature",
      "properties": {
        "norad_id": 67011,
        "name": "STARLINK-36167",
        "group": "last-30-days",
        "lat": -2.1704015782437027,
        "lon": -66.17773344946775,
        "alt_km": 314.5515624841446,
        "timestamp": "2025-12-22T18:58:52.141390+00:00",
        "meta_object_name": "STARLINK-36167",
        "meta_object_id": "2025-293J",
        "meta_epoch": "2025-12-22T06:00:02.000160",
        "meta_mean_motion": 15.88151264,
        "meta_eccentricity": 0.00037823,
        "meta_inclination": 69.9936,
        "meta_ra_of_asc_node": 296.1731,
        "meta_arg_of_pericenter": 284.0026,
        "meta_mean_anomaly": 224.1834,
        "meta_ephemeris_type": 0,
        "meta_classification_type": "U",
        "meta_norad_cat_id": 67011,
        "meta_element_set_no": 999,
        "meta_rev_at_epoch": 164,
        "meta_bstar": -0.0062003849,
        "meta_mean_motion_dot": -0.01476358,
        "meta_mean_motion_ddot": 0,
        "tle_line1": "1 67011U 25293J   25356.25002315 -.01476358  00000+0 -62004-2 0  9994",
        "tle_line2": "2 67011  69.9936 296.1731 0003782 284.0026 224.1834 15.88151264  1646"
      },
      "geometry": {
        "type": "Point",
        "coordinates": [
          -66.17773344946775,
          -2.1704015782437027
        ]
      }
    }
  ]
}